0 SCOUT X-4 DEB
1 00805U 64026B   13282.80498541  .00001095  00000-0  47363-3 0  5285
2 00805 089.9070 021.7563 0032487 332.6804 156.2863 14.23574623528847
0 SCOUT X-4 DEB
1 00805U 64026B   13287.44430611  .00001291  00000-0  55924-3 0  5307
2 00805 089.9074 021.7070 0032178 316.6855 173.0739 14.23584746529509
0 SCOUT X-4 DEB
1 00805U 64026B   13289.48274787  .00001337  00000-0  57931-3 0  5315
2 00805 089.9072 021.6855 0032180 309.5100 180.4200 14.23592984529793
0 SCOUT X-4 DEB
1 00805U 64026B   13290.94412189  .00001475  00000-0  63980-3 0  5323
2 00805 089.9069 021.6701 0032180 304.3789 110.2199 14.23596600530008
0 SCOUT X-4 DEB
1 00805U 64026B   13291.99828653  .00001516  00000-0  65739-3 0  5337
2 00805 089.9068 021.6589 0032173 300.7062 112.9846 14.23598712530157
0 SCOUT X-4 DEB
1 00805U 64026B   13293.26494679  .00001594  00000-0  69155-3 0  5349
2 00805 089.9066 021.6453 0032188 296.2576 124.8722 14.23602907530337
0 SCOUT X-4 DEB
1 00805U 64026B   13294.52983976  .00001535  00000-0  66582-3 0  5359
2 00805 089.9066 021.6316 0032198 291.8180 127.7176 14.23607506530513
0 SCOUT X-4 DEB
1 00805U 64026B   13295.80272943  .00001638  00000-0  71089-3 0  5369
2 00805 089.9066 021.6179 0032195 287.3873 171.5303 14.23610749530697
